[{"OBJECT_NAME":"TEVEL2-3","OBJECT_ID":"2025-052J","EPOCH":"2026-03-09T15:29:22.754400","MEAN_MOTION":15.30377031,"ECCENTRICITY":0.0004761,"INCLINATION":97.3994,"RA_OF_ASC_NODE":324.7775,"ARG_OF_PERICENTER":105.7353,"MEAN_ANOMALY":254.4413,"EPHEMERIS_TYPE":0,"CLASSIFICATION_TYPE":"U","NORAD_CAT_ID":63218,"ELEMENT_SET_NO":999,"REV_AT_EPOCH":5485,"BSTAR":0.00069446,"MEAN_MOTION_DOT":0.00020365,"MEAN_MOTION_DDOT":0},{"OBJECT_NAME":"STARLINK-33748","OBJECT_ID":"2025-063W","EPOCH":"2026-03-09T06:16:29.209152","MEAN_MOTION":15.30190184,"ECCENTRICITY":0.00012352,"INCLINATION":53.1601,"RA_OF_ASC_NODE":65.1125,"ARG_OF_PERICENTER":89.3044,"MEAN_ANOMALY":270.8098,"EPHEMERIS_TYPE":0,"CLASSIFICATION_TYPE":"U","NORAD_CAT_ID":63383,"ELEMENT_SET_NO":999,"REV_AT_EPOCH":5454,"BSTAR":0.00087904608,"MEAN_MOTION_DOT":0.00025758,"MEAN_MOTION_DDOT":0}]
