TEVEL2-3                
1 63218U 25052J   26068.64540225  .00020365  00000+0  69446-3 0  9991
2 63218  97.3994 324.7775 0004761 105.7353 254.4413 15.30377031 54855
STARLINK-33748          
1 63383U 25063W   26068.26144918  .00025758  00000+0  87905-3 0  9994
2 63383  53.1601  65.1125 0001235  89.3044 270.8098 15.30190184 54544
